{"type": "FeatureCollection", "features": [ {"type": "Feature", "properties": {"norad_id": 44476, "name": "INTELSAT 39 (IS-39)", "group": "intelsat", "lat": 0.033502884635519835, "lon": 24.81279037726167, "alt_km": 35788.49029445453, "timestamp": "2025-12-15T15:53:19.546328+00:00", "meta": {"OBJECT_NAME": "INTELSAT 39 (IS-39)", "OBJECT_ID": "2019-049B", "EPOCH": "2025-12-14T22:42:38.818368", "MEAN_MOTION": 1.00270878, "ECCENTRICITY": 0.00012415, "INCLINATION": 0.0196, "RA_OF_ASC_NODE": 330.0545, "ARG_OF_PERICENTER": 169.955, "MEAN_ANOMALY": 346.4542, "EPHEMERIS_TYPE": 0, "CLASSIFICATION_TYPE": "U", "NORAD_CAT_ID": 44476, "ELEMENT_SET_NO": 999, "REV_AT_EPOCH": 2328, "BSTAR": 0, "MEAN_MOTION_DOT": 5.4e-07, "MEAN_MOTION_DDOT": 0}, "tle": {"line1": "1 44476U 19049B   25348.94628262  .00000054  00000+0  00000+0 0  9996", "line2": "2 44476   0.0196 330.0545 0001241 169.9550 346.4542  1.00270878 23282"}}, "geometry": {"type": "Point", "coordinates": [24.81279037726167, 0.033502884635519835]}}, {"type": "Feature", "properties": {"norad_id": 46114, "name": "GALAXY 30 (G-30)", "group": "intelsat", "lat": -0.019924921148748144, "lon": -162.1331956396251, "alt_km": 35782.14959263145, "timestamp": "2025-12-15T15:53:19.546338+00:00", "meta": {"OBJECT_NAME": "GALAXY 30 (G-30)", "OBJECT_ID": "2020-056C", "EPOCH": "2025-12-14T16:14:52.443168", "MEAN_MOTION": 1.00271715, "ECCENTRICITY": 0.00021307, "INCLINATION": 0.0181, "RA_OF_ASC_NODE": 355.3137, "ARG_OF_PERICENTER": 267.0636, "MEAN_ANOMALY": 299.9386, "EPHEMERIS_TYPE": 0, "CLASSIFICATION_TYPE": "U", "NORAD_CAT_ID": 46114, "ELEMENT_SET_NO": 999, "REV_AT_EPOCH": 1944, "BSTAR": 0, "MEAN_MOTION_DOT": 5.6e-07, "MEAN_MOTION_DDOT": 0}, "tle": {"line1": "1 46114U 20056C   25348.67699587  .00000056  00000+0  00000+0 0  9997", "line2": "2 46114   0.0181 355.3137 0002130 267.0636 299.9386  1.00271715 19449"}}, "geometry": {"type": "Point", "coordinates": [-162.1331956396251, -0.019924921148748144]}}, {"type": "Feature", "properties": {"norad_id": 54026, "name": "GALAXY 33 (G-33)", "group": "intelsat", "lat": -0.020086833589860954, "lon": -170.13032341227256, "alt_km": 35782.68997930537, "timestamp": "2025-12-15T15:53:19.546348+00:00", "meta": {"OBJECT_NAME": "GALAXY 33 (G-33)", "OBJECT_ID": "2022-128A", "EPOCH": "2025-12-14T16:12:37.658304", "MEAN_MOTION": 1.00272574, "ECCENTRICITY": 0.00018603, "INCLINATION": 0.0104, "RA_OF_ASC_NODE": 328.9478, "ARG_OF_PERICENTER": 287.8681, "MEAN_ANOMALY": 296.9341, "EPHEMERIS_TYPE": 0, "CLASSIFICATION_TYPE": "U", "NORAD_CAT_ID": 54026, "ELEMENT_SET_NO": 999, "REV_AT_EPOCH": 1189, "BSTAR": 0, "MEAN_MOTION_DOT": 9.8e-07, "MEAN_MOTION_DDOT": 0}, "tle": {"line1": "1 54026U 22128A   25348.67543586  .00000098  00000+0  00000+0 0  9993", "line2": "2 54026   0.0104 328.9478 0001860 287.8681 296.9341  1.00272574 11891"}}, "geometry": {"type": "Point", "coordinates": [-170.13032341227256, -0.020086833589860954]}}, {"type": "Feature", "properties": {"norad_id": 54027, "name": "GALAXY 34 (G-34)", "group": "intelsat", "lat": -0.034580847750329234, "lon": -166.07634047563448, "alt_km": 35783.79225147488, "timestamp": "2025-12-15T15:53:19.546359+00:00", "meta": {"OBJECT_NAME": "GALAXY 34 (G-34)", "OBJECT_ID": "2022-128B", "EPOCH": "2025-12-14T16:13:45.050304", "MEAN_MOTION": 1.00267036, "ECCENTRICITY": 0.0001377, "INCLINATION": 0.0264, "RA_OF_ASC_NODE": 324.1317, "ARG_OF_PERICENTER": 282.2143, "MEAN_ANOMALY": 311.7522, "EPHEMERIS_TYPE": 0, "CLASSIFICATION_TYPE": "U", "NORAD_CAT_ID": 54027, "ELEMENT_SET_NO": 999, "REV_AT_EPOCH": 1206, "BSTAR": 0, "MEAN_MOTION_DOT": 0, "MEAN_MOTION_DDOT": 0}, "tle": {"line1": "1 54027U 22128B   25348.67621586  .00000000  00000+0  00000+0 0  9994", "line2": "2 54027   0.0264 324.1317 0001377 282.2143 311.7522  1.00267036 12068"}}, "geometry": {"type": "Point", "coordinates": [-166.07634047563448, -0.034580847750329234]}}, {"type": "Feature", "properties": {"norad_id": 54243, "name": "GALAXY 31 (G-31)", "group": "intelsat", "lat": -0.020539911351895132, "lon": -158.14326670876736, "alt_km": 35784.80610561716, "timestamp": "2025-12-15T15:53:19.546369+00:00", "meta": {"OBJECT_NAME": "GALAXY 31 (G-31)", "OBJECT_ID": "2022-153A", "EPOCH": "2025-12-14T21:24:15.312096", "MEAN_MOTION": 1.00271102, "ECCENTRICITY": 0.00014922, "INCLINATION": 0.013, "RA_OF_ASC_NODE": 353.12, "ARG_OF_PERICENTER": 285.8278, "MEAN_ANOMALY": 4.9116, "EPHEMERIS_TYPE": 0, "CLASSIFICATION_TYPE": "U", "NORAD_CAT_ID": 54243, "ELEMENT_SET_NO": 999, "REV_AT_EPOCH": 528, "BSTAR": 0, "MEAN_MOTION_DOT": 0, "MEAN_MOTION_DDOT": 0}, "tle": {"line1": "1 54243U 22153A   25348.89184389  .00000000  00000+0  00000+0 0  9991", "line2": "2 54243   0.0130 353.1200 0001492 285.8278   4.9116  1.00271102  5284"}}, "geometry": {"type": "Point", "coordinates": [-158.14326670876736, -0.020539911351895132]}}, {"type": "Feature", "properties": {"norad_id": 54244, "name": "GALAXY 32 (G-32)", "group": "intelsat", "lat": -0.0314102942539568, "lon": -128.14567881920036, "alt_km": 35785.05039757404, "timestamp": "2025-12-15T15:53:19.546379+00:00", "meta": {"OBJECT_NAME": "GALAXY 32 (G-32)", "OBJECT_ID": "2022-153B", "EPOCH": "2025-12-14T11:16:28.521120", "MEAN_MOTION": 1.00271615, "ECCENTRICITY": 0.00025826, "INCLINATION": 0.0101, "RA_OF_ASC_NODE": 332.4414, "ARG_OF_PERICENTER": 343.5961, "MEAN_ANOMALY": 205.4705, "EPHEMERIS_TYPE": 0, "CLASSIFICATION_TYPE": "U", "NORAD_CAT_ID": 54244, "ELEMENT_SET_NO": 999, "REV_AT_EPOCH": 1129, "BSTAR": 0, "MEAN_MOTION_DOT": -1.56e-06, "MEAN_MOTION_DDOT": 0}, "tle": {"line1": "1 54244U 22153B   25348.46977455 -.00000156  00000+0  00000+0 0  9992", "line2": "2 54244   0.0101 332.4414 0002582 343.5961 205.4705  1.00271615 11291"}}, "geometry": {"type": "Point", "coordinates": [-128.14567881920036, -0.0314102942539568]}}, {"type": "Feature", "properties": {"norad_id": 54741, "name": "GALAXY 35 (G-35)", "group": "intelsat", "lat": -0.03663292852438862, "lon": -130.25017870941986, "alt_km": 35779.60118247416, "timestamp": "2025-12-15T15:53:19.546389+00:00", "meta": {"OBJECT_NAME": "GALAXY 35 (G-35)", "OBJECT_ID": "2022-170A", "EPOCH": "2025-12-14T21:32:14.546976", "MEAN_MOTION": 1.00269195, "ECCENTRICITY": 0.00022738, "INCLINATION": 0.0159, "RA_OF_ASC_NODE": 339.3755, "ARG_OF_PERICENTER": 291.6447, "MEAN_ANOMALY": 42.7407, "EPHEMERIS_TYPE": 0, "CLASSIFICATION_TYPE": "U", "NORAD_CAT_ID": 54741, "ELEMENT_SET_NO": 999, "REV_AT_EPOCH": 1104, "BSTAR": 0, "MEAN_MOTION_DOT": 0, "MEAN_MOTION_DDOT": 0}, "tle": {"line1": "1 54741U 22170A   25348.89739059  .00000000  00000+0  00000+0 0  9993", "line2": "2 54741   0.0159 339.3755 0002273 291.6447  42.7407  1.00269195 11043"}}, "geometry": {"type": "Point", "coordinates": [-130.25017870941986, -0.03663292852438862]}}, {"type": "Feature", "properties": {"norad_id": 54742, "name": "GALAXY 36 (G-36)", "group": "intelsat", "lat": -0.021776487584786158, "lon": -126.11693567457317, "alt_km": 35786.13692825348, "timestamp": "2025-12-15T15:53:19.546400+00:00", "meta": {"OBJECT_NAME": "GALAXY 36 (G-36)", "OBJECT_ID": "2022-170B", "EPOCH": "2025-12-14T12:59:48.624864", "MEAN_MOTION": 1.00271323, "ECCENTRICITY": 2.906e-05, "INCLINATION": 0.0231, "RA_OF_ASC_NODE": 256.797, "ARG_OF_PERICENTER": 60.6633, "MEAN_ANOMALY": 231.956, "EPHEMERIS_TYPE": 0, "CLASSIFICATION_TYPE": "U", "NORAD_CAT_ID": 54742, "ELEMENT_SET_NO": 999, "REV_AT_EPOCH": 1092, "BSTAR": 0, "MEAN_MOTION_DOT": -1.66e-06, "MEAN_MOTION_DDOT": 0}, "tle": {"line1": "1 54742U 22170B   25348.54153501 -.00000166  00000+0  00000+0 0  9992", "line2": "2 54742   0.0231 256.7970 0000290  60.6633 231.9560  1.00271323 10928"}}, "geometry": {"type": "Point", "coordinates": [-126.11693567457317, -0.021776487584786158]}}, {"type": "Feature", "properties": {"norad_id": 57493, "name": "GALAXY 37 (G-37)", "group": "intelsat", "lat": 0.00037633324246690334, "lon": -164.1315048500161, "alt_km": 35783.26172780442, "timestamp": "2025-12-15T15:53:19.546410+00:00", "meta": {"OBJECT_NAME": "GALAXY 37 (G-37)", "OBJECT_ID": "2023-112A", "EPOCH": "2025-12-14T16:14:22.490880", "MEAN_MOTION": 1.00272504, "ECCENTRICITY": 0.00020403, "INCLINATION": 0.0203, "RA_OF_ASC_NODE": 49.3136, "ARG_OF_PERICENTER": 219.5099, "MEAN_ANOMALY": 291.3663, "EPHEMERIS_TYPE": 0, "CLASSIFICATION_TYPE": "U", "NORAD_CAT_ID": 57493, "ELEMENT_SET_NO": 999, "REV_AT_EPOCH": 869, "BSTAR": 0, "MEAN_MOTION_DOT": 6.7e-07, "MEAN_MOTION_DDOT": 0}, "tle": {"line1": "1 57493U 23112A   25348.67664920  .00000067  00000+0  00000+0 0  9990", "line2": "2 57493   0.0203  49.3136 0002040 219.5099 291.3663  1.00272504  8696"}}, "geometry": {"type": "Point", "coordinates": [-164.1315048500161, 0.00037633324246690334]}}]}